CSS (TIANHE)            
1 48274U 21035A   24064.92661400  .00037222  00000+0  39926-3 0  9997
2 48274  41.4692   0.2677 0006684 105.3781 254.7798 15.63038907162771
